STARLINK-37502          
1 69263U 26117AB  26156.66668980 -.02007139  12684-2 -28643-2 0  9994
2 69263  53.1566 301.2421 0000661  46.2975 313.2688 16.05004041  2322
STARLINK-37486          
1 69264U 26117AC  26156.66668980 -.01995650  12546-2 -28477-2 0  9990
2 69264  53.1564 301.2308 0000698  47.7658 317.4467 16.05004317  2326
STARLINK-37435          
1 69265U 26117AD  26156.66668980 -.01981678  12455-2 -27450-2 0  9995
2 69265  53.1564 301.2167 0000640  49.7973 321.7398 16.05486743  2327
STARLINK-37464          
1 69266U 26117AE  26156.66668980 -.01968286  12367-2 -26503-2 0  9996
2 69266  53.1564 301.2027 0000717  54.5516 323.7094 16.05944452  2326
KUIPER-00282            
1 69267U 26118A   26156.66668980  .00028557  00000+0  83125-3 0  9995
2 69267  51.8573 109.0719 0011606 142.6324  51.1750 15.35130271  1585
KUIPER-00383            
1 69268U 26118B   26156.66668980  .00057075  00000+0  16088-2 0  9996
2 69268  51.8579 109.0526 0011156 141.2696  62.1339 15.35815907  1643
KUIPER-00527            
1 69269U 26118C   26156.66668980  .00039154  00000+0  11038-2 0  9995
2 69269  51.8605 109.0351 0009999 135.5353  76.4826 15.35993904  1304
KUIPER-00562            
1 69270U 26118D   26156.66668980  .00043139  00000+0  11272-2 0  9995
2 69270  51.8714 108.9138 0001883  88.7592 175.8860 15.38346860  2170
KUIPER-00570            
1 69271U 26118E   26156.66668980  .00042087  00000+0  11994-2 0  9998
2 69271  51.8564 109.0506 0011354 143.5290  60.6725 15.35605753  1765
KUIPER-00572            
1 69272U 26118F   26156.66668980  .00039589  00000+0  10912-2 0  9991
2 69272  51.8663 109.0054 0007541 130.6630  94.9520 15.36710106  1518
KUIPER-00581            
1 69273U 26118G   26156.66668980  .00038865  00000+0  10823-2 0  9999
2 69273  51.8643 109.0222 0009106 134.8930  83.0669 15.36386126  2304
KUIPER-00584            
1 69274U 26118H   26156.66668980  .00048786  00000+0  14054-2 0  9993
2 69274  51.8592 109.0650 0011297 147.0483  50.3018 15.35202422  1305
KUIPER-00587            
1 69275U 26118J   26156.66668980  .00038239  00000+0  10662-2 0  9997
2 69275  51.8616 109.0164 0008562 136.7220  84.4802 15.36360191  1306
KUIPER-00590            
1 69276U 26118K   26156.66668980  .00040643  00000+0  10889-2 0  9991
2 69276  51.8677 108.9610 0004462 119.1559 127.6183 15.37594723  2060
KUIPER-00592            
1 69277U 26118L   26156.66668980  .00041737  00000+0  11105-2 0  9999
2 69277  51.8700 108.9475 0003689  97.8339 153.8798 15.37798870  1303
KUIPER-00593            
1 69278U 26118M   26156.66668980  .00041190  00000+0  10992-2 0  9996
2 69278  51.8705 108.9467 0004180 115.7335 135.6751 15.37712509  2272
KUIPER-00594            
1 69279U 26118N   26156.66668980  .00043568  00000+0  11317-2 0  9990
2 69279  51.8712 108.9080 0001300  56.8079 212.6315 15.38524064  1306
KUIPER-00595            
1 69280U 26118P   26156.66668980  .00042473  00000+0  11152-2 0  9993
2 69280  51.8704 108.9231 0001912  98.0409 165.2884 15.38202515  2243
KUIPER-00596            
1 69281U 26118Q   26156.66668980  .00046595  00000+0  13287-2 0  9994
2 69281  51.8541 109.0613 0012092 142.8653  56.0269 15.35531354  1515
KUIPER-00597            
1 69282U 26118R   26156.66668980  .00025938  00000+0  71512-3 0  9999
2 69282  51.8638 108.9934 0007164 130.8474 101.3268 15.36920718  1306
KUIPER-00599            
1 69283U 26118S   26156.66668980  .00039963  00000+0  10888-2 0  9991
2 69283  51.8683 108.9839 0006448 123.4641 111.9638 15.37073044  1310
KUIPER-00600            
1 69284U 26118T   26156.66668980  .00039321  00000+0  10918-2 0  9994
2 69284  51.8629 109.0141 0009194 131.1747  90.9687 15.36472581  2097
KUIPER-00601            
1 69285U 26118U   26156.66668980  .00040820  00000+0  11002-2 0  9996
2 69285  51.8694 108.9680 0005009 117.9472 124.1938 15.37405660  2122
KUIPER-00602            
1 69286U 26118V   26156.66668980  .00024887  00000+0  66652-3 0  9994
2 69286  51.8693 108.9430 0003165 107.3007 147.3573 15.37861519  1303
KUIPER-00603            
1 69287U 26118W   26156.66668980  .00039863  00000+0  10798-2 0  9994
2 69287  51.8661 108.9768 0005743 120.1659 119.6292 15.37258572  2077
KUIPER-00605            
1 69288U 26118X   26156.66668980  .00041123  00000+0  11297-2 0  9992
2 69288  51.8650 109.0014 0007720 125.0660 102.8567 15.36796736  1914
KUIPER-00606            
1 69289U 26118Y   26156.66668980  .00040746  00000+0  10952-2 0  9990
2 69289  51.8686 108.9622 0004837 113.3287 132.2096 15.37493653  1768
KUIPER-00607            
1 69290U 26118Z   26156.66668980  .00039995  00000+0  10860-2 0  9994
2 69290  51.8670 108.9797 0006478 119.1307 118.6992 15.37177907  1726
KUIPER-00608            
1 69291U 26118AA  26156.66668980  .00042714  00000+0  11936-2 0  9993
2 69291  51.8591 109.0285 0009980 139.1979  76.1353 15.36227990  1693
KUIPER-00610            
1 69292U 26118AB  26156.66668980  .00041570  00000+0  10979-2 0  9999
2 69292  51.8712 108.9301 0002982  99.3218 158.8430 15.38030973  1615
