OBJECT_NAME,OBJECT_ID,EPOCH,MEAN_MOTION,ECCENTRICITY,INCLINATION,RA_OF_ASC_NODE,ARG_OF_PERICENTER,MEAN_ANOMALY,EPHEMERIS_TYPE,CLASSIFICATION_TYPE,NORAD_CAT_ID,ELEMENT_SET_NO,REV_AT_EPOCH,BSTAR,MEAN_MOTION_DOT,MEAN_MOTION_DDOT
STARLINK-37502,2026-117AB,2026-06-05T16:00:01.998720,16.05004041,.0000661,53.1566,301.2421,46.2975,313.2688,0,U,69263,999,232,-.28643E-2,-.2007139E-1,.12684E-2
STARLINK-37486,2026-117AC,2026-06-05T16:00:01.998720,16.05004317,.0000698,53.1564,301.2308,47.7658,317.4467,0,U,69264,999,232,-.28477E-2,-.199565E-1,.12546E-2
STARLINK-37435,2026-117AD,2026-06-05T16:00:01.998720,16.05486743,.000064,53.1564,301.2167,49.7973,321.7398,0,U,69265,999,232,-.2745E-2,-.1981678E-1,.12455E-2
STARLINK-37464,2026-117AE,2026-06-05T16:00:01.998720,16.05944452,.0000717,53.1564,301.2027,54.5516,323.7094,0,U,69266,999,232,-.26503E-2,-.1968286E-1,.12367E-2
KUIPER-00282,2026-118A,2026-06-05T16:00:01.998720,15.35130271,.0011606,51.8573,109.0719,142.6324,51.1750,0,U,69267,999,158,.83125E-3,.28557E-3,0
KUIPER-00383,2026-118B,2026-06-05T16:00:01.998720,15.35815907,.0011156,51.8579,109.0526,141.2696,62.1339,0,U,69268,999,164,.16088E-2,.57075E-3,0
KUIPER-00527,2026-118C,2026-06-05T16:00:01.998720,15.35993904,.0009999,51.8605,109.0351,135.5353,76.4826,0,U,69269,999,130,.11038E-2,.39154E-3,0
KUIPER-00562,2026-118D,2026-06-05T16:00:01.998720,15.38346860,.0001883,51.8714,108.9138,88.7592,175.8860,0,U,69270,999,217,.11272E-2,.43139E-3,0
KUIPER-00570,2026-118E,2026-06-05T16:00:01.998720,15.35605753,.0011354,51.8564,109.0506,143.5290,60.6725,0,U,69271,999,176,.11994E-2,.42087E-3,0
KUIPER-00572,2026-118F,2026-06-05T16:00:01.998720,15.36710106,.0007541,51.8663,109.0054,130.6630,94.9520,0,U,69272,999,151,.10912E-2,.39589E-3,0
KUIPER-00581,2026-118G,2026-06-05T16:00:01.998720,15.36386126,.0009106,51.8643,109.0222,134.8930,83.0669,0,U,69273,999,230,.10823E-2,.38865E-3,0
KUIPER-00584,2026-118H,2026-06-05T16:00:01.998720,15.35202422,.0011297,51.8592,109.0650,147.0483,50.3018,0,U,69274,999,130,.14054E-2,.48786E-3,0
KUIPER-00587,2026-118J,2026-06-05T16:00:01.998720,15.36360191,.0008562,51.8616,109.0164,136.7220,84.4802,0,U,69275,999,130,.10662E-2,.38239E-3,0
KUIPER-00590,2026-118K,2026-06-05T16:00:01.998720,15.37594723,.0004462,51.8677,108.9610,119.1559,127.6183,0,U,69276,999,206,.10889E-2,.40643E-3,0
KUIPER-00592,2026-118L,2026-06-05T16:00:01.998720,15.37798870,.0003689,51.8700,108.9475,97.8339,153.8798,0,U,69277,999,130,.11105E-2,.41737E-3,0
KUIPER-00593,2026-118M,2026-06-05T16:00:01.998720,15.37712509,.000418,51.8705,108.9467,115.7335,135.6751,0,U,69278,999,227,.10992E-2,.4119E-3,0
KUIPER-00594,2026-118N,2026-06-05T16:00:01.998720,15.38524064,.00013,51.8712,108.9080,56.8079,212.6315,0,U,69279,999,130,.11317E-2,.43568E-3,0
KUIPER-00595,2026-118P,2026-06-05T16:00:01.998720,15.38202515,.0001912,51.8704,108.9231,98.0409,165.2884,0,U,69280,999,224,.11152E-2,.42473E-3,0
KUIPER-00596,2026-118Q,2026-06-05T16:00:01.998720,15.35531354,.0012092,51.8541,109.0613,142.8653,56.0269,0,U,69281,999,151,.13287E-2,.46595E-3,0
KUIPER-00597,2026-118R,2026-06-05T16:00:01.998720,15.36920718,.0007164,51.8638,108.9934,130.8474,101.3268,0,U,69282,999,130,.71512E-3,.25938E-3,0
KUIPER-00599,2026-118S,2026-06-05T16:00:01.998720,15.37073044,.0006448,51.8683,108.9839,123.4641,111.9638,0,U,69283,999,131,.10888E-2,.39963E-3,0
KUIPER-00600,2026-118T,2026-06-05T16:00:01.998720,15.36472581,.0009194,51.8629,109.0141,131.1747,90.9687,0,U,69284,999,209,.10918E-2,.39321E-3,0
KUIPER-00601,2026-118U,2026-06-05T16:00:01.998720,15.37405660,.0005009,51.8694,108.9680,117.9472,124.1938,0,U,69285,999,212,.11002E-2,.4082E-3,0
KUIPER-00602,2026-118V,2026-06-05T16:00:01.998720,15.37861519,.0003165,51.8693,108.9430,107.3007,147.3573,0,U,69286,999,130,.66652E-3,.24887E-3,0
KUIPER-00603,2026-118W,2026-06-05T16:00:01.998720,15.37258572,.0005743,51.8661,108.9768,120.1659,119.6292,0,U,69287,999,207,.10798E-2,.39863E-3,0
KUIPER-00605,2026-118X,2026-06-05T16:00:01.998720,15.36796736,.000772,51.8650,109.0014,125.0660,102.8567,0,U,69288,999,191,.11297E-2,.41123E-3,0
KUIPER-00606,2026-118Y,2026-06-05T16:00:01.998720,15.37493653,.0004837,51.8686,108.9622,113.3287,132.2096,0,U,69289,999,176,.10952E-2,.40746E-3,0
KUIPER-00607,2026-118Z,2026-06-05T16:00:01.998720,15.37177907,.0006478,51.8670,108.9797,119.1307,118.6992,0,U,69290,999,172,.1086E-2,.39995E-3,0
KUIPER-00608,2026-118AA,2026-06-05T16:00:01.998720,15.36227990,.000998,51.8591,109.0285,139.1979,76.1353,0,U,69291,999,169,.11936E-2,.42714E-3,0
KUIPER-00610,2026-118AB,2026-06-05T16:00:01.998720,15.38030973,.0002982,51.8712,108.9301,99.3218,158.8430,0,U,69292,999,161,.10979E-2,.4157E-3,0
